{"type": "FeatureCollection", "features": [{"type": "Feature", "properties": {"norad_id": 50032, "name": "COSMOS 1408 DEB", "group": "cosmos-1408-debris", "lat": 21.493900865879876, "lon": -122.52101234882298, "alt_km": 423.87926573428285, "timestamp": "2025-12-10T20:49:52.824044+00:00", "meta": {"OBJECT_NAME": "COSMOS 1408 DEB", "OBJECT_ID": "1982-092RU", "EPOCH": "2025-12-10T12:22:45.329088", "MEAN_MOTION": 15.45657785, "ECCENTRICITY": 0.00150731, "INCLINATION": 82.5641, "RA_OF_ASC_NODE": 60.788, "ARG_OF_PERICENTER": 217.1445, "MEAN_ANOMALY": 142.8762, "EPHEMERIS_TYPE": 0, "CLASSIFICATION_TYPE": "U", "NORAD_CAT_ID": 50032, "ELEMENT_SET_NO": 999, "REV_AT_EPOCH": 22569, "BSTAR": 0.00015993678, "MEAN_MOTION_DOT": 7.781e-05, "MEAN_MOTION_DDOT": 0}, "tle": {"line1": "1 50032U 82092RU  25344.51580242  .00007781  00000+0  15994-3 0  9999", "line2": "2 50032  82.5641  60.7880 0015073 217.1445 142.8762 15.45657785225694"}}, "geometry": {"type": "Point", "coordinates": [-122.52101234882298, 21.493900865879876]}}, {"type": "Feature", "properties": {"norad_id": 50058, "name": "COSMOS 1408 DEB", "group": "cosmos-1408-debris", "lat": -56.25056158061552, "lon": -97.50305368895103, "alt_km": 390.89406527427764, "timestamp": "2025-12-10T20:49:52.824063+00:00", "meta": {"OBJECT_NAME": "COSMOS 1408 DEB", "OBJECT_ID": "1982-092SW", "EPOCH": "2025-12-10T07:32:15.069120", "MEAN_MOTION": 15.63871955, "ECCENTRICITY": 0.001649, "INCLINATION": 82.6126, "RA_OF_ASC_NODE": 71.8794, "ARG_OF_PERICENTER": 107.0459, "MEAN_ANOMALY": 253.2608, "EPHEMERIS_TYPE": 0, "CLASSIFICATION_TYPE": "U", "NORAD_CAT_ID": 50058, "ELEMENT_SET_NO": 999, "REV_AT_EPOCH": 22766, "BSTAR": 0.00047418, "MEAN_MOTION_DOT": 0.00044963, "MEAN_MOTION_DDOT": 0}, "tle": {"line1": "1 50058U 82092SW  25344.31406330  .00044963  00000+0  47418-3 0  9999", "line2": "2 50058  82.6126  71.8794 0016490 107.0459 253.2608 15.63871955227666"}}, "geometry": {"type": "Point", "coordinates": [-97.50305368895103, -56.25056158061552]}}, {"type": "Feature", "properties": {"norad_id": 50404, "name": "COSMOS 1408 DEB", "group": "cosmos-1408-debris", "lat": -31.959104087023267, "lon": -147.95448420906783, "alt_km": 594.748010160788, "timestamp": "2025-12-10T20:49:52.824076+00:00", "meta": {"OBJECT_NAME": "COSMOS 1408 DEB", "OBJECT_ID": "1982-092ADS", "EPOCH": "2025-12-10T01:55:59.645280", "MEAN_MOTION": 15.13181066, "ECCENTRICITY": 0.01731067, "INCLINATION": 82.2033, "RA_OF_ASC_NODE": 217.7549, "ARG_OF_PERICENTER": 208.0507, "MEAN_ANOMALY": 151.1318, "EPHEMERIS_TYPE": 0, "CLASSIFICATION_TYPE": "U", "NORAD_CAT_ID": 50404, "ELEMENT_SET_NO": 999, "REV_AT_EPOCH": 21153, "BSTAR": 0.0036852181, "MEAN_MOTION_DOT": 0.00095791, "MEAN_MOTION_DDOT": 0}, "tle": {"line1": "1 50404U 82092ADS 25344.08055145  .00095791  00000+0  36852-2 0  9996", "line2": "2 50404  82.2033 217.7549 0173106 208.0507 151.1318 15.13181066211532"}}, "geometry": {"type": "Point", "coordinates": [-147.95448420906783, -31.959104087023267]}}, {"type": "Feature", "properties": {"norad_id": 50621, "name": "COSMOS 1408 DEB", "group": "cosmos-1408-debris", "lat": -56.106848631139215, "lon": 64.92710092663779, "alt_km": 420.6735993336015, "timestamp": "2025-12-10T20:49:52.824087+00:00", "meta": {"OBJECT_NAME": "COSMOS 1408 DEB", "OBJECT_ID": "1982-092ALR", "EPOCH": "2025-12-10T07:11:23.446752", "MEAN_MOTION": 15.564597, "ECCENTRICITY": 0.00288412, "INCLINATION": 82.5698, "RA_OF_ASC_NODE": 76.7205, "ARG_OF_PERICENTER": 161.3855, "MEAN_ANOMALY": 198.8462, "EPHEMERIS_TYPE": 0, "CLASSIFICATION_TYPE": "U", "NORAD_CAT_ID": 50621, "ELEMENT_SET_NO": 999, "REV_AT_EPOCH": 22212, "BSTAR": 0.00053677944, "MEAN_MOTION_DOT": 0.00038838, "MEAN_MOTION_DDOT": 0}, "tle": {"line1": "1 50621U 82092ALR 25344.29957693  .00038838  00000+0  53678-3 0  9994", "line2": "2 50621  82.5698  76.7205 0028841 161.3855 198.8462 15.56459700222122"}}, "geometry": {"type": "Point", "coordinates": [64.92710092663779, -56.106848631139215]}}]}